[
    {
        "Altitude(m)": 612502.2080814731,
        "Argument of Periapsis(deg)": 0.0,
        "Eccentricity": 0.0,
        "Inclination(deg)": 60.0,
        "Latitude(deg)": -28.136016739219478,
        "Longitude(deg)": 27.14829997607927,
        "Mean Anomaly(deg)": -32.727300000000035,
        "RAAN(deg)": 145.0,
        "Satellite Name": "Test1 658",
        "Satellite Number": 658,
        "Semi-Major Axis(m)": 6980739.136638005,
        "Time(s)": 0
    },
    {
        "Altitude(m)": 612308.6556261594,
        "Argument of Periapsis(deg)": 0.00010418945913296404,
        "Eccentricity": 0.0,
        "Inclination(deg)": 60.0,
        "Latitude(deg)": -27.62307145800138,
        "Longitude(deg)": 27.501773179759436,
        "Mean Anomaly(deg)": -32.10719385453818,
        "RAAN(deg)": 144.99957995086027,
        "Satellite Name": "Test1 658",
        "Satellite Number": 658,
        "Semi-Major Axis(m)": 6980739.136638005,
        "Time(s)": 10
    }
]